{
"type": "FeatureCollection",
"name": "reporting_areas_wgs84",
"crs": { "type": "name", "properties": { "name": "urn:ogc:def:crs:OGC:1.3:CRS84" } },
"features": [
{"type":"Feature","properties":{"report_area":"Ponta Negra"},"geometry":{"type":"MultiPolygon","coordinates":[[[[-42.704335981999975,-22.952508657999957],[-42.704151629999956,-22.952499659999944],[-42.703198917999934,-22.95226436899998],[-42.702725233999956,-22.952039176999953],[-42.702185902999922,-22.951806702999932],[-42.702155800999947,-22.951768295999951],[-42.702077610999936,-22.951745013999972],[-42.70191962499996,-22.951793351999981],[-42.701849011999968,-22.95180182099994],[-42.701714140999968,-22.951695446999967],[-42.701557758999961,-22.951648881999965],[-42.701387018999981,-22.951643242999978],[-42.701123949999953,-22.951440083999955],[-42.700959299999965,-22.951276321999948],[-42.700781520999961,-22.951080727999958],[-42.700805739999964,-22.950924575999981],[-42.701053268999935,-22.950381966999942],[-42.701092198999959,-22.948982724999951],[-42.700927063999984,-22.94880911399996],[-42.701074141999975,-22.948017065999984],[-42.701117735999958,-22.947607343999952],[-42.701335801999953,-22.947180337999956],[-42.701682732999977,-22.946948350999943],[-42.702235850999948,-22.946720763999952],[-42.70247850699996,-22.94660152699992],[-42.702976719999981,-22.946232348999953],[-42.703206375999969,-22.945842298999938],[-42.703500749999932,-22.945012406999975],[-42.703719660999973,-22.944715591999955],[-42.70390587299994,-22.944545654999963],[-42.704527482999929,-22.944785654999972],[-42.704662903999967,-22.944728183999931],[-42.704934222999945,-22.944222702999973],[-42.704960285999952,-22.944126857999947],[-42.705480463999947,-22.943654691999942],[-42.705831399999958,-22.943501284999968],[-42.706132312999955,-22.943415075999944],[-42.706240155999971,-22.943475358999915],[-42.706510231999971,-22.943405682999984],[-42.707309481999971,-22.943304035999969],[-42.707506440999964,-22.943198632999952],[-42.707760131999969,-22.942650440999955],[-42.708218821999935,-22.941814067999918],[-42.708545026999957,-22.941677277999926],[-42.708798292999973,-22.941516792999945],[-42.708971363999979,-22.941219307999969],[-42.709392832999974,-22.940868807999937],[-42.709531843999976,-22.940733911999921],[-42.709739665999962,-22.940550128999966],[-42.709888871999965,-22.940399459999988],[-42.710011496999975,-22.940375759999938],[-42.710132732999959,-22.940252987999944],[-42.710308298999955,-22.940101990999942],[-42.710514117999928,-22.940037040999965],[-42.710805426999961,-22.939976153999961],[-42.711093918999943,-22.939901074999977],[-42.711231389999966,-22.939903058999963],[-42.711447705999944,-22.939759016999972],[-42.711674635999934,-22.939619725999925],[-42.712006857999938,-22.939669799999937],[-42.712185514999931,-22.939584644999968],[-42.712287086999929,-22.939540828999942],[-42.712956914999943,-22.939502375999954],[-42.713185942999978,-22.939442708999934],[-42.713622065999964,-22.939310322999962],[-42.713741205999945,-22.939312039999951],[-42.713977822999929,-22.93941450199998],[-42.714219635999932,-22.939344050999967],[-42.714422384999978,-22.939097926999978],[-42.714760497999968,-22.938797151999943],[-42.715255898999935,-22.938569037999972],[-42.715779797999971,-22.938235913999954],[-42.716127116999985,-22.937932438999955],[-42.716402606999964,-22.937721319999977],[-42.71668025699995,-22.937518013999963],[-42.717188594999982,-22.93745174799994],[-42.717474082999956,-22.937304800999986],[-42.717862105999984,-22.936942474999974],[-42.718449183999944,-22.936735833999922],[-42.718757343999975,-22.936717270999971],[-42.718988447999948,-22.936601730999932],[-42.719297323999967,-22.936221282999949],[-42.719354083999967,-22.936070689999958],[-42.719275491999952,-22.935837493999937],[-42.719421085999954,-22.935536769999928],[-42.719711167999947,-22.935183643999956],[-42.719980325999984,-22.934802622999939],[-42.720209080999943,-22.934393780999986],[-42.720250788999969,-22.934342483999938],[-42.720516282999938,-22.934132065999947],[-42.720698617999972,-22.934009450999945],[-42.721295080999937,-22.933827847999968],[-42.721455310999943,-22.933679403999967],[-42.722017746999931,-22.933417210999952],[-42.718105335999951,-22.932099234999949],[-42.717957182999946,-22.932020958999949],[-42.71783019399993,-22.931953865999958],[-42.717703205999953,-22.931886770999924],[-42.717576217999977,-22.931819677999947],[-42.717428065999968,-22.93174140099995],[-42.71692659099994,-22.931560214999923],[-42.716924335999977,-22.931548856999939],[-42.716917189999947,-22.931537426999952],[-42.716910044999963,-22.931525997999927],[-42.716902860999937,-22.931516831999947],[-42.716895714999957,-22.931505402999957],[-42.716817892999977,-22.931475495999969],[-42.716682919999975,-22.931423465999952],[-42.716547948999953,-22.931371435999942],[-42.71650554799993,-22.931353482999945],[-42.716476609999972,-22.931344082999939],[-42.716447670999969,-22.931334682999928],[-42.716428368999964,-22.93132901599995],[-42.716120181999933,-22.931096333999957],[-42.713526019999968,-22.929779982999946],[-42.713147972999927,-22.929683979999929],[-42.712797980999937,-22.929589011999962],[-42.712399024999968,-22.929582989999954],[-42.711768038999935,-22.92939395499997],[-42.711058960999928,-22.929292992999937],[-42.710369997999976,-22.929103025999947],[-42.710136032999969,-22.929099017999921],[-42.709952008999942,-22.929005987999972],[-42.709574046999933,-22.928910970999926],[-42.708960966999939,-22.928811023],[-42.708328963999968,-22.928711973999949],[-42.707717038999924,-22.928613031999923],[-42.706711986999942,-22.928688975999943],[-42.706205973999943,-22.928661980999944],[-42.705478982999978,-22.928942006999939],[-42.703913001999979,-22.929912033999983],[-42.703233991999973,-22.929722],[-42.702805016999939,-22.929715970999951],[-42.702291970999966,-22.929527973999935],[-42.701766978999949,-22.929429996999932],[-42.700130033999976,-22.929406009999969],[-42.69983099399996,-22.929221016999978],[-42.699295965999958,-22.92912297699997],[-42.698987958999972,-22.928938032999952],[-42.698783026999926,-22.928934970999926],[-42.698571989999941,-22.928750980999958],[-42.698297011999955,-22.928296022999977],[-42.697860964999954,-22.92810904],[-42.697425991999978,-22.927921979999947],[-42.696824962999983,-22.92773296099994],[-42.696513978999974,-22.927637982999958],[-42.695999037999961,-22.927540042999958],[-42.695407,-22.927441974999969],[-42.695085977999945,-22.927347028999979],[-42.694465964999949,-22.92715700299993],[-42.694165024999961,-22.927061984999959],[-42.693970019999931,-22.927059964999966],[-42.693681031999965,-22.926875016999912],[-42.69347600499998,-22.926872036999949],[-42.693303010999948,-22.926778967999958],[-42.692671989999944,-22.926588955999932],[-42.691612981999974,-22.926392987999982],[-42.690574038999948,-22.926198026999931],[-42.689963005999971,-22.926008024999927],[-42.688893017999931,-22.925713018999947],[-42.68896370899995,-22.926885033999959],[-42.689103199999977,-22.927176030999924],[-42.689170222999955,-22.928503099999947],[-42.689248859999964,-22.928635349999986],[-42.689326969999961,-22.929990004999969],[-42.689154856999942,-22.93008917199996],[-42.689004863999969,-22.931097359999967],[-42.68886902099996,-22.931271971999934],[-42.688712046999967,-22.933711835999929],[-42.688599920999927,-22.93387174199994],[-42.688518967999983,-22.934058003999954],[-42.688370203999959,-22.934130603999947],[-42.688259021999947,-22.93429202399993],[-42.688148863999963,-22.93442771399997],[-42.688077264999947,-22.935071489999924],[-42.688167608999947,-22.93534371099998],[-42.68826155499994,-22.936615652999933],[-42.688400880999943,-22.936767850999956],[-42.688512105999969,-22.937511614999938],[-42.688607753999968,-22.937684245999947],[-42.68860617799993,-22.93794710099996],[-42.688450984,-22.938101],[-42.688398817999939,-22.938271170999943],[-42.688275289999979,-22.938400474999973],[-42.688151898999934,-22.938521753999957],[-42.687590099999973,-22.938644669999981],[-42.687382534999983,-22.938768065999959],[-42.687282244999949,-22.938911086999955],[-42.687153004999971,-22.939038997999944],[-42.686840552999968,-22.939105983999987],[-42.686607228999939,-22.939236361999967],[-42.686392410999979,-22.939297777999968],[-42.686238898999925,-22.939512596999972],[-42.686114989999965,-22.939736016999973],[-42.686028982999972,-22.939986457999957],[-42.685966893999932,-22.940240067999969],[-42.685847048999953,-22.940444986999974],[-42.685690442999935,-22.940528008999941],[-42.685510499999964,-22.940916688999955],[-42.685350889999931,-22.941150146999966],[-42.68523481099993,-22.94222102999991],[-42.685064027999942,-22.942389439999943],[-42.684785039999952,-22.942573992999936],[-42.684260980999959,-22.942802975999939],[-42.684000035999929,-22.943036971999959],[-42.683893059999939,-22.943225195999958],[-42.68359663699993,-22.94333609499995],[-42.683223002999966,-22.943500965999924],[-42.682963045999934,-22.943733981999962],[-42.682830981999977,-22.943920744999957],[-42.682636760999962,-22.944029495999917],[-42.682442024999936,-22.944201982999967],[-42.682241696999931,-22.944372840999947],[-42.68204183499995,-22.944591310999957],[-42.681908990999943,-22.944833467999963],[-42.681777407999959,-22.946072337999958],[-42.68010961799996,-22.945970271999951],[-42.680329338999968,-22.946103555999958],[-42.680854623999942,-22.946383966999978],[-42.681161943999932,-22.946588002999928],[-42.681343265999942,-22.946738247999967],[-42.681558680999956,-22.946866283999956],[-42.68178567599994,-22.947034227999939],[-42.681909074999965,-22.947166595999931],[-42.681967887999967,-22.947312210999947],[-42.681805319999967,-22.947500004999942],[-42.681793046999985,-22.947847977999974],[-42.681888976999971,-22.948127994999929],[-42.681983996999975,-22.948409983999973],[-42.682080024999941,-22.948690001999982],[-42.682174980999946,-22.948970003999939],[-42.682272010999945,-22.949156953999925],[-42.682617912999937,-22.949430960999955],[-42.682547650999929,-22.949597397999973],[-42.682477872999982,-22.949735456999967],[-42.68245997199994,-22.949905982999944],[-42.682508140999964,-22.950094950999983],[-42.682325154999937,-22.950401656999933],[-42.682109122999975,-22.950489326999957],[-42.681831713999941,-22.950581775999979],[-42.681670155999939,-22.95070997799996],[-42.681572334999935,-22.950874945999928],[-42.681525567999984,-22.951101329999965],[-42.681683689999936,-22.951174600999927],[-42.68194384699995,-22.951195434999942],[-42.681946479999958,-22.951400543999959],[-42.681871555999969,-22.951660576999917],[-42.681931000999946,-22.951769302999928],[-42.681914948999975,-22.951811998999975],[-42.681835329999956,-22.951807995999953],[-42.681928237999948,-22.951931403999929],[-42.68224462999995,-22.952069430999909],[-42.682514588999936,-22.952391981999941],[-42.682495012999929,-22.952641470999929],[-42.682386818999923,-22.95287547199996],[-42.682340855999939,-22.953054681999955],[-42.682471759999942,-22.953286500999987],[-42.682389626999964,-22.953430055999938],[-42.682288219999975,-22.953445603999963],[-42.682099679999965,-22.953718168999963],[-42.682014059999965,-22.953706626999978],[-42.681840387999955,-22.953826137999958],[-42.681869126999963,-22.954297723999954],[-42.68179669299996,-22.954411617999931],[-42.681904189999955,-22.954578168999934],[-42.682047044999926,-22.954648377999948],[-42.682174898999961,-22.954699562999973],[-42.68218997799994,-22.954713974999954],[-42.682162060999985,-22.95473343599997],[-42.682033898999975,-22.954700340999981],[-42.682005982999954,-22.954719799999964],[-42.681989615999946,-22.954780940999971],[-42.682015354999976,-22.954889173999959],[-42.681865759999937,-22.955034580999939],[-42.68182977999993,-22.955167456999948],[-42.681943413999932,-22.955335260999956],[-42.682142750999958,-22.955516506999974],[-42.682301785999982,-22.955672693999933],[-42.682524660999945,-22.955789342999942],[-42.682558748999945,-22.955960041999944],[-42.68242198799993,-22.956309849999958],[-42.682443312999965,-22.956505061999962],[-42.682463664999943,-22.956595121999943],[-42.682474443999979,-22.956745288999965],[-42.682480434999945,-22.956853141999932],[-42.682406017999931,-22.956914014999946],[-42.682402042999975,-22.956968607999951],[-42.682395805999924,-22.957023497999952],[-42.682495183999947,-22.957127131999975],[-42.682575389999954,-22.957276607999976],[-42.68263230499997,-22.957354075999948],[-42.682680025999957,-22.957431407999927],[-42.682723080999949,-22.957602693999938],[-42.682802218999932,-22.957635071999952],[-42.682919692999974,-22.957756],[-42.683098934999968,-22.957849446999933],[-42.683201321999945,-22.957933964999938],[-42.683356358999959,-22.958188843999952],[-42.68342753099995,-22.958328962999921],[-42.683571412999974,-22.958474047],[-42.683651439999949,-22.958634164999971],[-42.683716677999932,-22.958762842999917],[-42.683796704999956,-22.958922960999928],[-42.683908100999929,-22.959040960999967],[-42.684019475999946,-22.959137671999947],[-42.684195462999973,-22.95924242399996],[-42.684301184999981,-22.959513611999967],[-42.684383629999957,-22.959531846999944],[-42.684503910999972,-22.959488188999945],[-42.684821724999949,-22.959543921999963],[-42.68509176799995,-22.959525158999949],[-42.685273601999931,-22.959601610999975],[-42.68541723699996,-22.959626414999946],[-42.68551427899996,-22.959687436999957],[-42.685565501999974,-22.959739274999951],[-42.68550222999994,-22.959855078999968],[-42.685841274999966,-22.960104127999951],[-42.685966524999969,-22.960128661999931],[-42.68611075299998,-22.960231173999944],[-42.686247389999942,-22.960306965999958],[-42.686310483999932,-22.960381683999973],[-42.686259958999983,-22.96046893599992],[-42.686450062999931,-22.960644850999916],[-42.686532847999956,-22.960643219999952],[-42.686621631999962,-22.960829363999959],[-42.686975906999976,-22.961084308999936],[-42.687162009999945,-22.961090217999978],[-42.687184689999981,-22.961198405999944],[-42.687545506999982,-22.961249082999927],[-42.687608385999958,-22.961156334999924],[-42.687727459999962,-22.961183616999957],[-42.687768792999968,-22.961096230999939],[-42.687792029999969,-22.960631079999914],[-42.68809506499997,-22.960609953999949],[-42.688234864999963,-22.960680112999963],[-42.688317358999932,-22.960695507999954],[-42.688373554999941,-22.960815538999949],[-42.68845679799994,-22.960967185999941],[-42.688493021999925,-22.961067037999946],[-42.688592201999931,-22.961250866999929],[-42.688711879999971,-22.961422913999964],[-42.688913304999971,-22.961474102999947],[-42.689135842999967,-22.961545467999944],[-42.689233129999927,-22.961592298999971],[-42.689342818999933,-22.96163079699993],[-42.689365708999958,-22.961839394999977],[-42.689635058999947,-22.962042006999969],[-42.689885803999971,-22.962076882999948],[-42.689932974999977,-22.962006611999968],[-42.69042921099998,-22.96197978199995],[-42.69060148899996,-22.961942554999947],[-42.690651627999955,-22.961878002999971],[-42.69048429399993,-22.961804606999983],[-42.69047300699998,-22.961747319999969],[-42.690465549999935,-22.961645029999946],[-42.69077428199995,-22.961649527999946],[-42.691435233999975,-22.96153426799998],[-42.691747044999936,-22.961402566999936],[-42.692122627999936,-22.961305854999978],[-42.69209345899997,-22.961399095999983],[-42.692177771999972,-22.961442898999959],[-42.692297810999939,-22.961413424999929],[-42.692321457999981,-22.961464859999975],[-42.692277208999933,-22.961543689999928],[-42.692337579999958,-22.961598497999933],[-42.692698707999966,-22.961450482999972],[-42.692717562999967,-22.961558614999934],[-42.692880020999951,-22.961558140999951],[-42.692878527999937,-22.961646107999961],[-42.692880772999956,-22.961694392999956],[-42.692956803999941,-22.961729559999974],[-42.693101068999958,-22.961717467999964],[-42.693221943999959,-22.961458097999984],[-42.693471647999957,-22.961373741999971],[-42.693556423999951,-22.96107410899997],[-42.693648537999934,-22.96083879999998],[-42.69368400999997,-22.960915952999979],[-42.693737771999963,-22.960999046999962],[-42.693787201999946,-22.960795403999949],[-42.693884827999966,-22.960822368999974],[-42.693934375999959,-22.960973168999942],[-42.693990496999959,-22.960917217999956],[-42.694110646999945,-22.960700411999941],[-42.694059082999956,-22.960668439999939],[-42.694009428999941,-22.960704616999966],[-42.693927365999961,-22.960663684999925],[-42.69379968199997,-22.960601867999969],[-42.693733758999933,-22.960512918999932],[-42.693517161999971,-22.960452644999968],[-42.693997937999931,-22.960297852999926],[-42.694087909999951,-22.960233879999972],[-42.694159463999938,-22.959990820999955],[-42.694457712999956,-22.959935552999969],[-42.694580396999982,-22.959750004999925],[-42.694596220999983,-22.959675373999957],[-42.694817428999954,-22.959644529999927],[-42.69484319399993,-22.959571106999924],[-42.69477937299996,-22.959538956999946],[-42.694697069999961,-22.959512214999954],[-42.694593332999936,-22.95930350499998],[-42.694660154999944,-22.959158655999946],[-42.694586387999941,-22.95899011999996],[-42.694943542999958,-22.958714314999945],[-42.695115219999927,-22.958350661999933],[-42.695185964999943,-22.958313371999964],[-42.695186589999928,-22.958276481999967],[-42.695129186999957,-22.958227395999923],[-42.695196038999931,-22.958080772999949],[-42.695191881999961,-22.95796433899994],[-42.695154842999955,-22.957866586999952],[-42.695990114999965,-22.957592051999935],[-42.696434540999967,-22.957411177999973],[-42.696991957999956,-22.957189001999954],[-42.697901973999933,-22.956922970999983],[-42.699176149999964,-22.95666653599994],[-42.699819120999955,-22.956525431999982],[-42.70021695999997,-22.956396988999927],[-42.700873676999947,-22.95630975399996],[-42.702401874999971,-22.956155928999973],[-42.703787630999948,-22.956065308999943],[-42.705523761999984,-22.955940008999946],[-42.707155001999979,-22.955847972999955],[-42.709072975999959,-22.955760714999943],[-42.710974634999957,-22.955679612999965],[-42.71318101199995,-22.955656024999929],[-42.71549861099993,-22.955654033999966],[-42.718302023999961,-22.955636992999924],[-42.72454831899995,-22.955744049999961],[-42.724537977999937,-22.955480466999969],[-42.724553889999981,-22.955258615999988],[-42.724171349999949,-22.955248256999937],[-42.724174735999952,-22.955139150999962],[-42.724178230999939,-22.955023545999946],[-42.724183638999925,-22.954910135999974],[-42.72418661599994,-22.954796328999969],[-42.724189514999971,-22.954681346999969],[-42.724190945999965,-22.954572573999943],[-42.724274369999932,-22.954574312999966],[-42.72442580899996,-22.954578111999972],[-42.724580777999961,-22.954580696999976],[-42.724588418999986,-22.954322139999931],[-42.724591527999962,-22.954182964999966],[-42.724599851999976,-22.953930195999931],[-42.724442634999939,-22.953928029999926],[-42.724285725999941,-22.953925111999983],[-42.724206189999954,-22.953923823999958],[-42.72421001299994,-22.953811924999961],[-42.724214798999974,-22.953706540999978],[-42.724217902999953,-22.953596798999961],[-42.724220419999938,-22.95348713899994],[-42.724363415999953,-22.953484221999929],[-42.724369815999978,-22.953327491999971],[-42.724613381999966,-22.953331347999942],[-42.724616839999946,-22.953118866999944],[-42.724619620999924,-22.952619918999972],[-42.72480069799996,-22.952462128999958],[-42.724830775999976,-22.951575141999967],[-42.724625620999973,-22.951443893999969],[-42.72461917399994,-22.951282975999955],[-42.724771503999932,-22.951192051999961],[-42.724839328999963,-22.951235347999955],[-42.724844503999968,-22.951472428999971],[-42.724885906999923,-22.951456092999923],[-42.724919194999977,-22.951105292999966],[-42.724851440999934,-22.951057765999956],[-42.724709804999975,-22.951055733999961],[-42.724376771999964,-22.951021328999957],[-42.724179742999979,-22.951052358999966],[-42.723713753999952,-22.951316535999979],[-42.723249886999945,-22.951453772999951],[-42.722600020999955,-22.95157792599997],[-42.72199193299997,-22.951572355999925],[-42.721933173999957,-22.95161264699993],[-42.721806731999941,-22.951613994999953],[-42.721694377999938,-22.951590230999948],[-42.721640251999929,-22.951557809999926],[-42.721208044999962,-22.951659183999926],[-42.720754703999937,-22.951798222999958],[-42.720578949999947,-22.951785808999944],[-42.720469852999933,-22.951771582999974],[-42.720340841999985,-22.951722264999937],[-42.720210007999981,-22.951577993999933],[-42.720103402999939,-22.951415084999944],[-42.719891382999947,-22.951222182999967],[-42.719824442999936,-22.951138949999965],[-42.719775167999948,-22.951021164999922],[-42.719711325999981,-22.950956961999971],[-42.719615574999978,-22.950961913999947],[-42.719560601999937,-22.95098010899995],[-42.719525700999952,-22.951023905999925],[-42.719386835999948,-22.95115480599997],[-42.719246147999968,-22.951190753999978],[-42.719083947999927,-22.951210569999937],[-42.718857223999969,-22.951283249999967],[-42.718602430999972,-22.951399824999946],[-42.718529529999955,-22.951468389999942],[-42.718398768999975,-22.951523464999976],[-42.718160417999961,-22.951678245999979],[-42.717838277999931,-22.951939405999937],[-42.717691227999978,-22.952023513999958],[-42.717578129999936,-22.952044035999965],[-42.717498608999961,-22.952099847999932],[-42.717378998999948,-22.952101289999977],[-42.71726105099998,-22.952207175999948],[-42.717270873999944,-22.952232630999969],[-42.71714721099994,-22.952271985999957],[-42.717117210999952,-22.952227254999965],[-42.716788787999974,-22.952302818999957],[-42.71665392299996,-22.952424281999978],[-42.716598470999941,-22.952470946999934],[-42.716522789999942,-22.952501498999943],[-42.716456982999944,-22.952554342999971],[-42.716223265999922,-22.95263641099994],[-42.716161406999959,-22.95265766999994],[-42.716089778999951,-22.95265030999996],[-42.716038326999971,-22.952662225],[-42.715996857999983,-22.952690105999984],[-42.715948768999958,-22.952705234999929],[-42.715818696999968,-22.952719181999957],[-42.71578427299994,-22.952734506999946],[-42.715787103999958,-22.95276935399994],[-42.715752625999976,-22.95278784299995],[-42.715698129999957,-22.952777564999966],[-42.715632801999959,-22.952801937999926],[-42.715574996999969,-22.952785283999958],[-42.715465633999933,-22.952786872999987],[-42.715427686999924,-22.95280847499998],[-42.715369455999955,-22.952817128999968],[-42.715298040999983,-22.952797114999949],[-42.715093190999937,-22.952787834999985],[-42.715058606999946,-22.952812649999945],[-42.714938994999955,-22.952814090999933],[-42.714645702999974,-22.952781385999963],[-42.714577543999951,-22.952770909999963],[-42.714509118999956,-22.952776252999961],[-42.71413731399997,-22.952739250999951],[-42.71351806399997,-22.952635395999941],[-42.713056168999962,-22.952546068999936],[-42.712640915999941,-22.952451481999958],[-42.712419678999929,-22.952400825999959],[-42.712129102999931,-22.952206780999973],[-42.712020050999975,-22.95198687699996],[-42.71199821499993,-22.951863155999938],[-42.711920769999949,-22.951871531999931],[-42.711933049999971,-22.951953978999946],[-42.711873701999934,-22.952029063999927],[-42.711829241999965,-22.952031585999976],[-42.711779014999927,-22.951970741999961],[-42.711806661999958,-22.951952154999962],[-42.711803777999926,-22.951920470999926],[-42.711769937999975,-22.951900997999928],[-42.711635919999935,-22.951946526999961],[-42.711569632999954,-22.952027839999971],[-42.711380755999983,-22.952135465999952],[-42.711050050999965,-22.952092721999978],[-42.710901081999964,-22.952011465999934],[-42.710742930999963,-22.951866792999958],[-42.710691846999964,-22.951729993999948],[-42.710603778999939,-22.951684422999957],[-42.710446274999974,-22.951704298999964],[-42.710130094999954,-22.951813644999945],[-42.709888158999945,-22.951977853999942],[-42.70952320199995,-22.952345960999928],[-42.709125023999938,-22.952708444999924],[-42.709001998999952,-22.952709831999986],[-42.708778577999965,-22.952788872999971],[-42.708660140999932,-22.952771339999948],[-42.708248683999955,-22.952857155999929],[-42.707923265999959,-22.952906243999962],[-42.707796662999947,-22.952917070999931],[-42.707735602999939,-22.95289087399993],[-42.707653620999956,-22.952889688999957],[-42.70757793699994,-22.95292023699994],[-42.707276162999953,-22.952985485999925],[-42.707119457999966,-22.952957905999934],[-42.707091756999944,-22.952979655999968],[-42.706989545999932,-22.952962356999937],[-42.706917437999941,-22.952983462999942],[-42.70685926099997,-22.952988949999963],[-42.706689797999957,-22.952907393999968],[-42.706585612999952,-22.952880573999948],[-42.706479452999986,-22.952894858999972],[-42.70638439399994,-22.952858677999927],[-42.706342921999969,-22.95288655599995],[-42.70609366799993,-22.95287662099997],[-42.706053262999937,-22.952841229999926],[-42.705793653999933,-22.952837473999978],[-42.705466365999932,-22.952794768999976],[-42.704939355999947,-22.952666900999919],[-42.704701749999963,-22.952675327999945],[-42.704596923999929,-22.952610525999937],[-42.704470963999938,-22.95258338899998],[-42.704335981999975,-22.952508657999957]]]]}},
{"type":"Feature","properties":{"report_area":"Cordeirinho"},"geometry":{"type":"MultiPolygon","coordinates":[[[[-42.76480072399994,-22.958430000999947],[-42.764824577999939,-22.958017840999972],[-42.764845787999946,-22.957747730999916],[-42.764866998999928,-22.957477530999927],[-42.764871744999937,-22.957360856999966],[-42.764894977999965,-22.957092219999929],[-42.765051264999954,-22.957103993999958],[-42.765207649999979,-22.957115767999941],[-42.765283699999934,-22.957121444999927],[-42.765293176999926,-22.957013504999956],[-42.765302652999935,-22.956905564999946],[-42.765312128999931,-22.956797625999972],[-42.76532160499994,-22.956689685999944],[-42.765331080999943,-22.956581745999973],[-42.76534065699996,-22.956473716999938],[-42.76535013299997,-22.956365777999967],[-42.765359708999938,-22.956257658999959],[-42.765369282999984,-22.956149719999924],[-42.76537875899993,-22.956041779999961],[-42.76538793799994,-22.955934106999962],[-42.765397413999949,-22.955826166999927],[-42.765406889999952,-22.955718227999977],[-42.765416762999955,-22.955609841999944],[-42.765426345999963,-22.95550136199995],[-42.765348544999938,-22.955495389999957],[-42.765193042999954,-22.955483446999938],[-42.76503763799996,-22.955471505999981],[-42.765061572999969,-22.955201614999968],[-42.765207187999977,-22.953823170999954],[-42.765396943999974,-22.951267072999944],[-42.765219656999932,-22.95109288999992],[-42.764870342999984,-22.950780531999939],[-42.764659952999978,-22.950642967999954],[-42.764253952999979,-22.950456037999967],[-42.764022982999961,-22.950273020999926],[-42.763827953999964,-22.95027],[-42.762574031999975,-22.949440002999943],[-42.762272984999981,-22.949345016999931],[-42.762068988999935,-22.949341957999938],[-42.76183803899994,-22.949158034999979],[-42.761657008999975,-22.948884979999946],[-42.761611046999967,-22.948704028999938],[-42.761603984999965,-22.948522994999962],[-42.76172697699996,-22.948164034999941],[-42.762657020999931,-22.947364034999968],[-42.762022511999938,-22.946779858999935],[-42.761274069999949,-22.946277206999984],[-42.760806823999978,-22.946141782999966],[-42.759998609999968,-22.946162576999932],[-42.759176346999929,-22.946264925999969],[-42.758442809999963,-22.946502306999946],[-42.758398695999972,-22.946498632999969],[-42.758339490999958,-22.946475218999979],[-42.758307614999978,-22.94643713999994],[-42.758187323999941,-22.946340113999941],[-42.758118444999972,-22.946246322999965],[-42.757979941999963,-22.94610388499995],[-42.757784363999967,-22.945973181999932],[-42.757542625999974,-22.945849352999971],[-42.757192300999975,-22.945685643999973],[-42.756032576999985,-22.945508513999982],[-42.753648472999942,-22.945182424999924],[-42.753246680999951,-22.945052860999958],[-42.75251246199997,-22.944643275999962],[-42.752089936999937,-22.944514034999941],[-42.751389543999942,-22.944647798999931],[-42.751035060999982,-22.944953694999981],[-42.750778957999948,-22.945234971999973],[-42.750633814999958,-22.945438543999945],[-42.750544887999979,-22.945801468999949],[-42.750219132999973,-22.946432317999946],[-42.749472208999968,-22.947316394999973],[-42.748002188999969,-22.94891578599993],[-42.746507301999941,-22.950581079999939],[-42.745531867999937,-22.95171148999998],[-42.745282191999934,-22.951764920999949],[-42.744914755999957,-22.951539202999975],[-42.743846991999931,-22.950795952999961],[-42.743047056999949,-22.950497804999937],[-42.740445099999924,-22.949874253999941],[-42.740077304999943,-22.950156976999942],[-42.73889275199997,-22.950286260999963],[-42.738254122999926,-22.950403503999944],[-42.73722578099995,-22.950388833999959],[-42.735806671999967,-22.950546952999961],[-42.734857543999965,-22.95059471499998],[-42.733591562999948,-22.950633607999986],[-42.732900149999978,-22.950747596999985],[-42.732354502999947,-22.950903305999937],[-42.731688034999927,-22.950985129999932],[-42.730696224999967,-22.950785130999968],[-42.730255201999967,-22.950642559999952],[-42.730255751999948,-22.950449327999923],[-42.73017132599994,-22.950378750999953],[-42.729773573999978,-22.950328463999934],[-42.729354725999933,-22.950319989999972],[-42.728831120999978,-22.950597395999974],[-42.728481163999959,-22.950728641999941],[-42.728267593999931,-22.950762434999948],[-42.728112390999961,-22.950905073999941],[-42.727666874999962,-22.951038355999955],[-42.727192460999959,-22.951260097999977],[-42.726668493999959,-22.951438807999974],[-42.726030162999955,-22.951624338999977],[-42.725723904999938,-22.951628410999945],[-42.724955902999959,-22.951642787999972],[-42.724830775999976,-22.951575141999967],[-42.72480069799996,-22.952462128999958],[-42.724619620999924,-22.952619918999972],[-42.724616839999946,-22.953118866999944],[-42.724613381999966,-22.953331347999942],[-42.724369815999978,-22.953327491999971],[-42.724363415999953,-22.953484221999929],[-42.724220419999938,-22.95348713899994],[-42.724217902999953,-22.953596798999961],[-42.724214798999974,-22.953706540999978],[-42.72421001299994,-22.953811924999961],[-42.724206189999954,-22.953923823999958],[-42.724285725999941,-22.953925111999983],[-42.724442634999939,-22.953928029999926],[-42.724599851999976,-22.953930195999931],[-42.724591527999962,-22.954182964999966],[-42.724588418999986,-22.954322139999931],[-42.724580777999961,-22.954580696999976],[-42.72442580899996,-22.954578111999972],[-42.724274369999932,-22.954574312999966],[-42.724190945999965,-22.954572573999943],[-42.724189514999971,-22.954681346999969],[-42.72418661599994,-22.954796328999969],[-42.724183638999925,-22.954910135999974],[-42.724178230999939,-22.955023545999946],[-42.724174735999952,-22.955139150999962],[-42.724171349999949,-22.955248256999937],[-42.724553889999981,-22.955258615999988],[-42.724537977999937,-22.955480466999969],[-42.72454831899995,-22.955744049999961],[-42.726396969999939,-22.955786958999965],[-42.727536979999961,-22.955803031999949],[-42.730508984999972,-22.955935976999964],[-42.733031962999974,-22.956061995999953],[-42.735765980999929,-22.956372010999925],[-42.73975599299996,-22.956789995999934],[-42.742295988999949,-22.957096953999958],[-42.744668187999935,-22.957308359999953],[-42.74700903899997,-22.957435038999957],[-42.749539239999926,-22.957637021999968],[-42.751805320999942,-22.957919357999963],[-42.754497360999942,-22.958050320999973],[-42.757934951999971,-22.958222023999944],[-42.759681011999923,-22.958156962999968],[-42.761190960999947,-22.958268037999972],[-42.762008953999946,-22.958280037999938],[-42.763091015999976,-22.95829503899995],[-42.76480072399994,-22.958430000999947]]]]}},
{"type":"Feature","properties":{"report_area":"Itaipuaçu"},"geometry":{"type":"MultiPolygon","coordinates":[[[[-43.004132013999929,-22.969468023999983],[-43.004907044999982,-22.969568980999952],[-43.012139014999946,-22.97052696999997],[-43.013284995999975,-22.971096032999981],[-43.013409972999959,-22.971618972999973],[-43.013525124999944,-22.971788263999937],[-43.013337579999977,-22.972014904999977],[-43.013236574999944,-22.972111996999949],[-43.013409424999956,-22.972209449999983],[-43.013457387999949,-22.972334535999948],[-43.013388530999976,-22.972503302999939],[-43.013797015999948,-22.972779984999921],[-43.014029004999934,-22.973114009999964],[-43.014116488999946,-22.973188259999972],[-43.014145984999971,-22.973668511999964],[-43.014431515999938,-22.974107098999987],[-43.014569350999977,-22.97442668399998],[-43.014020448999929,-22.975557271999946],[-43.013747680999984,-22.97616340799993],[-43.013706663999983,-22.976584760999973],[-43.014049977999953,-22.976516023999981],[-43.023302023999975,-22.970365990999927],[-43.023901958999936,-22.969272026999921],[-43.023968954999923,-22.968332957999955],[-43.024486978999953,-22.967003016999957],[-43.024109033999935,-22.966304009999924],[-43.023132041999922,-22.965626969999963],[-43.022420954999966,-22.964803980999925],[-43.021988993999969,-22.964031968999958],[-43.021835037999949,-22.963447991999935],[-43.021810964999922,-22.960330993999939],[-43.021367013999956,-22.959847961999966],[-43.016666685999951,-22.957168],[-43.013165036999965,-22.956593034999969],[-43.012600230999958,-22.95733918399997],[-43.00962599099995,-22.961173018999936],[-43.009596981999941,-22.961869023999949],[-43.008906960999973,-22.962936965999962],[-43.008176832999936,-22.963533774999963],[-43.006652044999946,-22.963880039999935],[-43.004469203999982,-22.962488647999969],[-43.004381938999984,-22.962487163999977],[-43.004225629999951,-22.962484816999961],[-43.00408408699996,-22.962481957999955],[-43.004088434999971,-22.962222445999956],[-43.004090040999984,-22.962219305999948],[-43.004064433999979,-22.962083899999971],[-43.00406602399994,-22.961975563999943],[-43.00406761499994,-22.961867228999957],[-43.003959965999961,-22.96183390799996],[-43.003803991999973,-22.961831159999971],[-43.00364801999995,-22.961828410999932],[-43.003565138999924,-22.961826949999921],[-43.003492046999945,-22.961825660999974],[-43.003352033999931,-22.961826330999941],[-43.003175716999984,-22.961824383999939],[-43.003056279999946,-22.961834461999942],[-43.002900264999937,-22.961834392999943],[-43.002744349999944,-22.96183423399998],[-43.002744251999957,-22.961834234999976],[-43.002666246999979,-22.961834063999955],[-43.002588337999953,-22.96183398499992],[-43.002432324999972,-22.961833824999935],[-43.002276311999928,-22.961833664999965],[-43.002163811999935,-22.96183566399997],[-43.002004970999963,-22.961833328999933],[-43.001848772999942,-22.961830957999947],[-43.001771570999949,-22.961830189999954],[-43.001696374999938,-22.961829441999949],[-43.00154025799997,-22.961830334999931],[-43.001383023999949,-22.961830968999958],[-43.001269848999982,-22.961812068999954],[-43.001263474999973,-22.961955910999954],[-43.001266694999963,-22.962105495999932],[-43.000975267999927,-22.962103625999934],[-43.00072991299993,-22.962108454999964],[-43.000700826999939,-22.961130998999973],[-43.000455367999962,-22.96043831999997],[-43.000262975999924,-22.959649164999973],[-43.000079866999954,-22.958931265999976],[-42.99988515699993,-22.958299904999933],[-42.999593207999965,-22.957432971999935],[-42.998780809999971,-22.956061772999924],[-42.997882911999959,-22.954971089999951],[-42.995511474999937,-22.953175274999971],[-42.995037006999951,-22.95275942599994],[-42.994425671999977,-22.95254414499993],[-42.993741202999956,-22.952508287999933],[-42.992944374999979,-22.952615370999965],[-42.991832570999975,-22.952510910999926],[-42.991225246999925,-22.952024512999969],[-42.99027407799997,-22.950406455999943],[-42.989592724999966,-22.94957975299997],[-42.988330988999955,-22.947944357999962],[-42.98770469699997,-22.947167649999976],[-42.987634895999967,-22.94722243099994],[-42.987002009999969,-22.947909227999958],[-42.986432437999945,-22.948527297999934],[-42.986371007999928,-22.948553967999938],[-42.985817431999976,-22.94918442799997],[-42.985263850999949,-22.949814795999941],[-42.985025018999977,-22.949976370999931],[-42.984803881999937,-22.949799109999951],[-42.984229662999951,-22.950413497999932],[-42.984229572999936,-22.950413591999965],[-42.98415298499998,-22.950495506999967],[-42.98407640299996,-22.950577424999953],[-42.983999917999938,-22.950659343999966],[-42.983923432999973,-22.95074126399992],[-42.983846850999953,-22.950823181999962],[-42.983655443999957,-22.951027886999949],[-42.98362455399996,-22.951092506999942],[-42.983045894999975,-22.951703313999928],[-42.982949417999976,-22.951805114999964],[-42.982852941999965,-22.951906914999938],[-42.982756464999966,-22.952008714999977],[-42.982467036999928,-22.952314025999947],[-42.98232501599994,-22.952418081999941],[-42.982543874999976,-22.952597754999925],[-42.981961832999957,-22.953205805999964],[-42.981379784999937,-22.953813852999918],[-42.981300293999936,-22.953947539999938],[-42.981081875999955,-22.953767451999965],[-42.98089402599993,-22.953960863999946],[-42.980816679999968,-22.954042445999956],[-42.980735888999952,-22.954127661999955],[-42.980652672999952,-22.95421543499997],[-42.98058378199994,-22.954288097999942],[-42.980501648999962,-22.954374727999951],[-42.980391678999972,-22.954285379999927],[-42.980281806999983,-22.954195939999977],[-42.980127510999978,-22.95435876299997],[-42.979970505999972,-22.954524498999948],[-42.979702917999923,-22.954806624999947],[-42.979623163999975,-22.954892584999985],[-42.979848068999956,-22.955065656999974],[-42.979723540999935,-22.955204570999964],[-42.979580176999939,-22.955364282999941],[-42.979443156999935,-22.955517032999975],[-42.979287496999973,-22.955690583999967],[-42.979062394999964,-22.955517597999958],[-42.978837489999933,-22.955344524999919],[-42.978612488999943,-22.955171448999963],[-42.978387389999966,-22.954998371999981],[-42.978162388999969,-22.954825295999946],[-42.977937389999958,-22.954652219999947],[-42.977712487999945,-22.954479144999926],[-42.977488158999961,-22.95430634499996],[-42.977263158999961,-22.954133328999937],[-42.977037687999939,-22.953959916999956],[-42.976812495999972,-22.953786836999942],[-42.976587596999934,-22.953613759999936],[-42.976624843999957,-22.953571359999945],[-42.976517325999957,-22.95348422599994],[-42.976398636999932,-22.953391338999953],[-42.976186083999941,-22.953213866999928],[-42.976094635999964,-22.953119222999931],[-42.976020099999971,-22.953197095999936],[-42.975865691999957,-22.95335841699994],[-42.975756972999932,-22.953472001999955],[-42.975512661999964,-22.95372724899994],[-42.975275392999947,-22.953531924999925],[-42.975519704999954,-22.953276677999948],[-42.97563291299997,-22.953155346999949],[-42.975776459999963,-22.953004146999938],[-42.975854637999923,-22.952921800999942],[-42.975658004999957,-22.952760052999949],[-42.975643163999962,-22.95274830499994],[-42.975439255999959,-22.952580099999974],[-42.975410262999958,-22.952556252999958],[-42.975220604999947,-22.952400238999932],[-42.975173587999954,-22.952361563999943],[-42.975001953999936,-22.952220377999922],[-42.974929148999927,-22.952160514999957],[-42.974783302999974,-22.952040515999947],[-42.974681043999965,-22.951956434999943],[-42.974564555999955,-22.951860652999972],[-42.974419172999944,-22.951741060999947],[-42.974345906999979,-22.95168079099993],[-42.974163468999954,-22.951531098999951],[-42.974127257999953,-22.951500928999963],[-42.973908609999967,-22.951321065999938],[-42.973899887999949,-22.951313891999966],[-42.973819466999942,-22.951247736999946],[-42.973739926999933,-22.951182304999971],[-42.973689962999963,-22.951141202999967],[-42.973544397999945,-22.951021134999959],[-42.973471315999973,-22.950961339999939],[-42.973249667999937,-22.95078552199994],[-42.973007473999985,-22.950582424999929],[-42.972775469999924,-22.95041474799995],[-42.972702593999934,-22.950335615999951],[-42.97259323499997,-22.950442225999947],[-42.97252743599995,-22.950399685999969],[-42.972500332999971,-22.95038566799996],[-42.972433562999981,-22.950358836999957],[-42.972376877999977,-22.950348541999968],[-42.97232895999997,-22.950344510999962],[-42.972276372999936,-22.950343371999956],[-42.972195578999958,-22.950358831999949],[-42.972135922999932,-22.950378487999956],[-42.972073630999944,-22.950404394999953],[-42.972010219999952,-22.950448349999927],[-42.971987904999928,-22.950466127999952],[-42.97178291299997,-22.950279189999936],[-42.971961956999962,-22.950095435999966],[-42.972150308999971,-22.949902173999934],[-42.972018379999952,-22.949794967999935],[-42.971801223999933,-22.949613495999923],[-42.97168547299998,-22.949516663999916],[-42.971584139999948,-22.949431985999979],[-42.971482806999965,-22.949347307999957],[-42.971381473999941,-22.949262629999964],[-42.971367010999977,-22.949250552999946],[-42.971280141999955,-22.949177951999953],[-42.971149856999936,-22.949069080999944],[-42.970932702999953,-22.948887608999932],[-42.970867605999949,-22.948833139999973],[-42.970715647999953,-22.948706136999935],[-42.970512878999948,-22.948536657999963],[-42.970447842999938,-22.948482298999981],[-42.970281342999961,-22.948343190999942],[-42.97008435399993,-22.948178409999979],[-42.96984713799997,-22.947980244999929],[-42.969730126999927,-22.947928903999973],[-42.969481414999954,-22.947725986999945],[-42.969232802999954,-22.947522979999974],[-42.968998733999967,-22.94733198799997],[-42.968805384999939,-22.947535114999933],[-42.968527291999969,-22.947308523999936],[-42.968278287999965,-22.947105781999934],[-42.968074,-22.946938104999958],[-42.96795044199996,-22.946905538999939],[-42.967870587999975,-22.946984715999971],[-42.967507757999947,-22.946802051999956],[-42.967249694999964,-22.94669633999996],[-42.967006498999979,-22.946545887999942],[-42.966763303999976,-22.946395434999939],[-42.966520109999976,-22.946244980999957],[-42.966276916999959,-22.946094526999968],[-42.966033722999953,-22.945944072999961],[-42.965833533999955,-22.945821837999972],[-42.965790529999929,-22.945793618999968],[-42.965610938999923,-22.945680961999983],[-42.965035208999943,-22.94533147299995],[-42.964792018999951,-22.945181016999978],[-42.964548828999966,-22.94503056099995],[-42.964305638999967,-22.944880103999928],[-42.964062450999954,-22.94472964799996],[-42.963796392999932,-22.944564751999962],[-42.963576074999935,-22.944428732999938],[-42.963332887999961,-22.944278275999974],[-42.963089700999944,-22.944127816999984],[-42.96284651499996,-22.943977358999962],[-42.962603329999972,-22.943826899999976],[-42.96234340299997,-22.943661638999963],[-42.962288283999953,-22.943633660999975],[-42.961479211999972,-22.944112036999968],[-42.960943376999971,-22.944008419999921],[-42.960711291999985,-22.944073744999962],[-42.960416996999982,-22.944225015999962],[-42.959787861999985,-22.944430494999953],[-42.946185127999961,-22.948350619999921],[-42.944948970999974,-22.947985627999962],[-42.944203548999951,-22.947983238999939],[-42.942802686999983,-22.947233817999972],[-42.942170908999962,-22.946818758999935],[-42.939823026999925,-22.949047137999973],[-42.938781744999972,-22.949955343999932],[-42.933151909999935,-22.953301766999971],[-42.932594623999925,-22.953402555999954],[-42.932054977999933,-22.953352866999978],[-42.931657711999947,-22.953228258999953],[-42.929718916999946,-22.951677060999938],[-42.929174004999936,-22.951570423999954],[-42.928666533999944,-22.951626353999931],[-42.922638952999925,-22.956283989999967],[-42.917263995999967,-22.958840016999932],[-42.904637005999973,-22.963830023999947],[-42.904082523999932,-22.963701024999974],[-42.902589964999947,-22.962406984999973],[-42.902991006999976,-22.967666106999957],[-42.903221775999953,-22.968438399999968],[-42.903228823999939,-22.968985469999943],[-42.903200206999934,-22.96963506599996],[-42.903178661999959,-22.971934978999958],[-42.90988968399995,-22.973901679999983],[-42.911495182999936,-22.974241113999938],[-42.913868416999939,-22.974586144999922],[-42.917350038999984,-22.974668979999933],[-42.919922722999949,-22.974714449999961],[-42.924159816999968,-22.974571866999952],[-42.927222224999973,-22.974425249999964],[-42.928487117999964,-22.974340748999953],[-42.934686643999946,-22.973579663999942],[-42.938266007999978,-22.973028990999978],[-42.942046802999982,-22.972368695999933],[-42.960233,-22.970250014999976],[-42.962038585999949,-22.970100888999966],[-42.963661017999982,-22.970027997999964],[-42.966938981999924,-22.969889039999941],[-42.969281963999947,-22.969738035999956],[-42.970374962999976,-22.969662011999954],[-42.97165301299998,-22.969587987999947],[-42.973097975999963,-22.969515997999967],[-42.975488044999963,-22.969456972999978],[-42.97917245699994,-22.969414637999929],[-42.98200632399994,-22.96942506699996],[-42.987806243999948,-22.969290721999975],[-42.997800405999953,-22.969352369999964],[-43.000079274999962,-22.96946289199996],[-43.003366997999933,-22.969627964999979],[-43.004132013999929,-22.969468023999983]],[[-42.979159455999927,-22.964578560999936],[-42.979158397999981,-22.964792735999932],[-42.979158815999931,-22.964586025999939],[-42.979160590999975,-22.964394438999914],[-42.979159455999927,-22.964578560999936]]]]}},
{"type":"Feature","properties":{"report_area":"Guaratiba"},"geometry":{"type":"MultiPolygon","coordinates":[[[[-42.813100148999979,-22.961247124999936],[-42.813584243999969,-22.961246881999948],[-42.81362385999995,-22.959649482999957],[-42.813460952999947,-22.95984799099995],[-42.813363580999976,-22.959930111999938],[-42.813178959999952,-22.95988861699993],[-42.813044630999961,-22.959759391999956],[-42.812877517999929,-22.959760244999913],[-42.812727665999944,-22.959853968999948],[-42.812613343999942,-22.959894234999979],[-42.812340197999951,-22.959561508999961],[-42.812492136999929,-22.959479392999985],[-42.812484265999956,-22.95943865799995],[-42.812218550999944,-22.959438938999934],[-42.811651041999944,-22.959573214999978],[-42.811342729999978,-22.959715016999951],[-42.811124911999975,-22.959740956999937],[-42.811037746999943,-22.959771333999978],[-42.811004035999986,-22.959835342999952],[-42.810900522999923,-22.959910231999967],[-42.810788540999965,-22.960014774999934],[-42.810670885999961,-22.96008551999995],[-42.810350763999956,-22.960199522999972],[-42.809872124999963,-22.96018633299996],[-42.809462563999936,-22.960085933999945],[-42.808782646999923,-22.960042326999936],[-42.808554374999964,-22.959956438999946],[-42.80834951199995,-22.959795706999955],[-42.808248029999959,-22.95938803599995],[-42.808294996999955,-22.959133915999921],[-42.808324996999943,-22.958938017999976],[-42.808375692999959,-22.958799660999933],[-42.808358306999928,-22.958732312999928],[-42.808291962999931,-22.958705079999959],[-42.808111632999946,-22.958785483999964],[-42.807968343999953,-22.958859819999919],[-42.807790856999922,-22.958973158999967],[-42.807649665999975,-22.959093577999965],[-42.807551516999979,-22.959188275999956],[-42.807457629999931,-22.959283031999966],[-42.807386768999947,-22.959359685999971],[-42.807252098999975,-22.959549275999954],[-42.807151807999951,-22.959688681999985],[-42.807047465999972,-22.959814873999942],[-42.806943527999969,-22.959916069999974],[-42.806644817999938,-22.960045822999984],[-42.806312671999926,-22.960112281999958],[-42.806343968999947,-22.960021922999935],[-42.806133597999974,-22.95976242699993],[-42.805944456999953,-22.959640232999963],[-42.805821432999942,-22.959625371999941],[-42.805464042999965,-22.959682269999959],[-42.804855907999979,-22.959604275999926],[-42.804379243999961,-22.959491092999944],[-42.803492536999954,-22.95915396599997],[-42.803347993999978,-22.958975972999962],[-42.803255283999931,-22.958733891999941],[-42.803213243999956,-22.958609622999965],[-42.80318103299993,-22.958414025999943],[-42.803196935999949,-22.958036025999952],[-42.803384661999978,-22.957267061999964],[-42.803639512999943,-22.95729033099996],[-42.803804046999971,-22.957220238999987],[-42.803765039999981,-22.957084168999916],[-42.803672832999951,-22.956986836999924],[-42.802983653999938,-22.956814125999969],[-42.802842559999931,-22.956796545999953],[-42.802793537999953,-22.956840603999982],[-42.802690410999951,-22.956803647999955],[-42.802685408999928,-22.956761471999982],[-42.802178899999944,-22.956561518999937],[-42.802002902999959,-22.956461708999939],[-42.80188691099994,-22.956341675999969],[-42.801686808999925,-22.95623889999996],[-42.801281715999949,-22.956039033999954],[-42.801061237999924,-22.955966238999956],[-42.80087137299995,-22.955933340999934],[-42.800554839999961,-22.956001320999974],[-42.800328870999977,-22.956136182999948],[-42.800183628999946,-22.956243379999925],[-42.800050303999967,-22.956316532999949],[-42.799962223999948,-22.956403469999941],[-42.79983271499998,-22.956526181999955],[-42.799744335999947,-22.956631537999957],[-42.799677776999943,-22.956705615999955],[-42.799613521999959,-22.956823969999949],[-42.799619617999944,-22.956974057999961],[-42.799555323999975,-22.957083694999927],[-42.799400277999951,-22.957203913999937],[-42.798959534999938,-22.957242533999931],[-42.798116264999976,-22.956758445999981],[-42.797936562999944,-22.956569596999941],[-42.797577607999983,-22.956372666999986],[-42.797320856999931,-22.956258570999971],[-42.797106659999933,-22.956149012999951],[-42.79694647599996,-22.956060107999967],[-42.796843777999982,-22.955996836999926],[-42.79672081599994,-22.955868809999977],[-42.796579750999967,-22.955729017999939],[-42.796502351999948,-22.955606064999927],[-42.796428307999967,-22.955440558999953],[-42.796389009999984,-22.955322903999935],[-42.796345538999951,-22.955210619999949],[-42.796299607999963,-22.955063925999976],[-42.796295972999978,-22.954685412999932],[-42.79631018799995,-22.954246620999989],[-42.796419859999958,-22.953704053999957],[-42.796515424999939,-22.95324287099994],[-42.796621736999953,-22.953082995999981],[-42.796673273999936,-22.952883707999938],[-42.79677696199996,-22.952622641999938],[-42.796883976999929,-22.95250702199996],[-42.796878919999983,-22.952380632999954],[-42.796873995999931,-22.952262027999947],[-42.796946330999958,-22.951735871999961],[-42.796912317999947,-22.951231686999957],[-42.796825466999962,-22.951111234999921],[-42.796366248999959,-22.950817017999949],[-42.796128202999959,-22.950689709999953],[-42.795955288999942,-22.95057165799993],[-42.795753926999964,-22.950462462999951],[-42.795513753999955,-22.950385109999946],[-42.795291491999933,-22.95033267599996],[-42.795010083999955,-22.950282697999963],[-42.794641584999958,-22.950212809999986],[-42.793941362999924,-22.950102649999966],[-42.793765575999934,-22.950161882999968],[-42.793642457999965,-22.950258856999938],[-42.793642696999939,-22.950346751999973],[-42.793764627999956,-22.950528281999919],[-42.793778883999948,-22.950573196999976],[-42.793797909999967,-22.950632056999943],[-42.793794983999931,-22.950812427999942],[-42.793778351999947,-22.950913965999973],[-42.793793861999966,-22.951086882999963],[-42.793798694999964,-22.951199514999928],[-42.793832251999959,-22.951286331999935],[-42.793853167999941,-22.951331339999957],[-42.793884220999985,-22.951367236999939],[-42.793907449999956,-22.951372186999954],[-42.793936099999939,-22.95135099699997],[-42.793949966999946,-22.951317266999965],[-42.793940403999947,-22.951290919999959],[-42.793904056999956,-22.951273452999938],[-42.793894468999952,-22.951248647999922],[-42.793905682999934,-22.951173246999936],[-42.793912100999933,-22.951085443999943],[-42.793925428999948,-22.950982316999951],[-42.793963976999976,-22.950864121999913],[-42.793987781999924,-22.950833612999929],[-42.793978193999976,-22.950808807999969],[-42.793963837999968,-22.950770059999964],[-42.793989331999967,-22.950738031999936],[-42.794009682999949,-22.950715184999982],[-42.794010182999955,-22.950684353999971],[-42.79399282199995,-22.950625516999928],[-42.794010943999979,-22.950534791999921],[-42.793981705999954,-22.950489667999921],[-42.793908161999973,-22.950507148999961],[-42.793867220999971,-22.950464946999936],[-42.793828244999922,-22.950404266999939],[-42.793962037999961,-22.950367771999922],[-42.79411013999993,-22.950372915999928],[-42.794194110999968,-22.950431136999953],[-42.79421785499995,-22.950507023999933],[-42.794248740999933,-22.950758601999951],[-42.794209803999934,-22.950900886999921],[-42.794214236999949,-22.951038183999959],[-42.794218307999984,-22.951095100999968],[-42.794276270999944,-22.951114410999935],[-42.794296986999939,-22.951171751999929],[-42.794267636999962,-22.951236106999946],[-42.794235583999978,-22.951261873999943],[-42.794214757999953,-22.951314010999955],[-42.794179900999943,-22.951307358999927],[-42.794155405999959,-22.951277719999947],[-42.794121837999967,-22.951294214999947],[-42.794117333999964,-22.951366625999977],[-42.794095896999977,-22.951559073999928],[-42.794123759999934,-22.951688987999947],[-42.794132834999971,-22.951848128999913],[-42.794024348999976,-22.951966701999943],[-42.79390894699997,-22.951998440999944],[-42.793841235999935,-22.952066887999937],[-42.793794978999976,-22.95224973899996],[-42.79372753499996,-22.952314527999931],[-42.793675435999937,-22.95254953299996],[-42.793428737999932,-22.953066659999937],[-42.793441895999933,-22.953153579999928],[-42.793451267999956,-22.95321731599995],[-42.793413721999961,-22.953478928999981],[-42.793394378999949,-22.954029673999958],[-42.793354933999979,-22.954408353999948],[-42.793296124999983,-22.954697619999937],[-42.79328766499998,-22.955090704999979],[-42.793276082999967,-22.955419658999968],[-42.793211585999984,-22.955674631999941],[-42.793174225999962,-22.955924682999974],[-42.792975787999978,-22.956000464999928],[-42.792549873999974,-22.95611379699994],[-42.791998315999933,-22.956370179999954],[-42.791832736999936,-22.956441117999919],[-42.791568371999972,-22.956443217999951],[-42.791355930999934,-22.956532053999968],[-42.791045783999948,-22.956789867999927],[-42.790703011999938,-22.956948322999946],[-42.79048211199995,-22.957072745999923],[-42.790279177999928,-22.957177802999972],[-42.790030625999968,-22.957265877999923],[-42.789752198999963,-22.957303337999971],[-42.789594207999976,-22.957291497999964],[-42.789495872999964,-22.957322893999958],[-42.78880243499998,-22.95734406299994],[-42.788155585999952,-22.957252159999939],[-42.787488329999967,-22.957071305999914],[-42.787055027999941,-22.956870825999939],[-42.786567798999954,-22.956626946999965],[-42.786226649999946,-22.956487261999932],[-42.785831251999973,-22.95627598499993],[-42.785568142999971,-22.956200993999968],[-42.785307468999981,-22.956232046999954],[-42.784952501999946,-22.955934595999963],[-42.784949972999982,-22.955834333999977],[-42.785018286999957,-22.955729277999975],[-42.785115010999952,-22.955668949999957],[-42.785221313999948,-22.955531657999931],[-42.785383444999972,-22.95528913499993],[-42.785582257999977,-22.955094587999952],[-42.785725920999937,-22.954963599999925],[-42.785927534999985,-22.954852694999932],[-42.786018934999952,-22.954863608999968],[-42.785965827,-22.95467397599997],[-42.785844593999968,-22.954577837999974],[-42.78564320199996,-22.954467569999967],[-42.785561734999931,-22.954485706999929],[-42.785498200999932,-22.954425067999978],[-42.78540856799998,-22.954433452999982],[-42.785043407999979,-22.954362818999982],[-42.784618475999942,-22.95438386699993],[-42.784180557999939,-22.954435570999969],[-42.783847259999952,-22.954533068999972],[-42.78370434899994,-22.954617806999956],[-42.783155610999977,-22.954700726999935],[-42.78250395699996,-22.954761002999913],[-42.782169732999925,-22.954835352999961],[-42.781903446999934,-22.954827773999966],[-42.781421311999956,-22.954942457999937],[-42.781180417999963,-22.955084850999988],[-42.780982710999979,-22.955211223999985],[-42.780837496999936,-22.955309418999931],[-42.780680300999954,-22.955376606999948],[-42.78054990499993,-22.955459589999979],[-42.780362883999935,-22.95556876399996],[-42.780151050999962,-22.955667953999971],[-42.779808018999965,-22.955803613999937],[-42.779279465999934,-22.955828977999932],[-42.778827945999979,-22.955566302999966],[-42.77858242699994,-22.95548190899995],[-42.778325157999973,-22.955432045999949],[-42.778079333999983,-22.955445947999976],[-42.777692563999949,-22.955455946999958],[-42.777401720999926,-22.955550170999963],[-42.776773510999931,-22.955687849999943],[-42.776214728999946,-22.95578],[-42.774643300999962,-22.955829267999945],[-42.773039955999927,-22.955698817999973],[-42.771431915999983,-22.955601053999942],[-42.770575519999959,-22.955454092999947],[-42.770139718999985,-22.955249437999949],[-42.769772037999978,-22.955142593999945],[-42.769503362999949,-22.955027022999957],[-42.769241847999979,-22.954855655999939],[-42.769060632999974,-22.954737458999936],[-42.76892330499993,-22.95460831599997],[-42.768829893999964,-22.954466297999936],[-42.76868515499995,-22.954297295999925],[-42.76856803499993,-22.954205058999943],[-42.768440542999933,-22.954110745999966],[-42.768300817999936,-22.954000843999943],[-42.768295255999931,-22.953880058999971],[-42.76814860099995,-22.95368525099996],[-42.768060674999958,-22.95358956899997],[-42.767882769999972,-22.953523457999943],[-42.767663192999969,-22.953333404999963],[-42.767419375999971,-22.953130240999943],[-42.767251793999947,-22.952815635999968],[-42.76703823999997,-22.952639158999947],[-42.766944042999967,-22.952545314999952],[-42.766789503999973,-22.952482182999962],[-42.766508004999928,-22.952387627999929],[-42.766255026999943,-22.952102220999951],[-42.766141885999957,-22.951959742999964],[-42.766060503999938,-22.951814860999942],[-42.765920008999956,-22.951669144999972],[-42.765865832999964,-22.951517801999952],[-42.765833148999945,-22.951407828999937],[-42.765694255999961,-22.951314610999923],[-42.765566592999953,-22.951268892999966],[-42.765396943999974,-22.951267072999944],[-42.765207187999977,-22.953823170999954],[-42.765061572999969,-22.955201614999968],[-42.76503763799996,-22.955471505999981],[-42.765193042999954,-22.955483446999938],[-42.765348544999938,-22.955495389999957],[-42.765426345999963,-22.95550136199995],[-42.765416762999955,-22.955609841999944],[-42.765406889999952,-22.955718227999977],[-42.765397413999949,-22.955826166999927],[-42.76538793799994,-22.955934106999962],[-42.76537875899993,-22.956041779999961],[-42.765369282999984,-22.956149719999924],[-42.765359708999938,-22.956257658999959],[-42.76535013299997,-22.956365777999967],[-42.76534065699996,-22.956473716999938],[-42.765331080999943,-22.956581745999973],[-42.76532160499994,-22.956689685999944],[-42.765312128999931,-22.956797625999972],[-42.765302652999935,-22.956905564999946],[-42.765293176999926,-22.957013504999956],[-42.765283699999934,-22.957121444999927],[-42.765207649999979,-22.957115767999941],[-42.765051264999954,-22.957103993999958],[-42.764894977999965,-22.957092219999929],[-42.764871744999937,-22.957360856999966],[-42.764866995999967,-22.957477710999957],[-42.764845786999956,-22.957747820999934],[-42.764824576999949,-22.958017930999954],[-42.76480072399994,-22.958430000999947],[-42.766216806999978,-22.958507966999957],[-42.770698698999972,-22.95905825299997],[-42.772051014999931,-22.959127214999963],[-42.773291466999979,-22.95918270299995],[-42.774791483999927,-22.959315994999926],[-42.776359445999958,-22.959464281999942],[-42.779416923999968,-22.959560551999957],[-42.785964708999984,-22.959847618999959],[-42.786794040999951,-22.959929025999944],[-42.78803302499994,-22.95997336899995],[-42.793498649999947,-22.960194638999948],[-42.794705142999931,-22.960258134999936],[-42.796467187999951,-22.960393139999947],[-42.79880959999997,-22.960524074999967],[-42.80063967399996,-22.96056850399998],[-42.801270437999953,-22.96061012399997],[-42.802792062999963,-22.960710799999951],[-42.806006042999975,-22.960867546999964],[-42.806920109999965,-22.960892303999966],[-42.808274411999946,-22.960957743999938],[-42.809536741999977,-22.961035524999929],[-42.810819849999973,-22.961113798999971],[-42.813100148999979,-22.961247124999936]]]]}}
]
}
